{
    "links": {
        "self": "http://www.neowsapp.com/rest/v1/neo/3698526?api_key=iIulBulltgU6a56xZRHN4H3l9WmuAYTsLGpBGhQ2"
    },
    "id": "3698526",
    "neo_reference_id": "3698526",
    "name": "(2014 HA198)",
    "designation": "2014 HA198",
    "nasa_jpl_url": "http://ssd.jpl.nasa.gov/sbdb.cgi?sstr=3698526",
    "absolute_magnitude_h": 28.7,
    "estimated_diameter": {
        "kilometers": {
            "estimated_diameter_min": 0.0048367649,
            "estimated_diameter_max": 0.0108153351
        },
        "meters": {
            "estimated_diameter_min": 4.8367648822,
            "estimated_diameter_max": 10.8153350678
        },
        "miles": {
            "estimated_diameter_min": 0.0030054254,
            "estimated_diameter_max": 0.0067203356
        },
        "feet": {
            "estimated_diameter_min": 15.8686516961,
            "estimated_diameter_max": 35.4833839037
        }
    },
    "is_potentially_hazardous_asteroid": false,
    "close_approach_data": [
        {
            "close_approach_date": "1981-03-15",
            "close_approach_date_full": "1981-Mar-15 21:32",
            "epoch_date_close_approach": 353539920000,
            "relative_velocity": {
                "kilometers_per_second": "15.7107869097",
                "kilometers_per_hour": "56558.8328748991",
                "miles_per_hour": "35143.459238295"
            },
            "miss_distance": {
                "astronomical": "0.4895373188",
                "lunar": "190.4300170132",
                "kilometers": "73233740.177990956",
                "miles": "45505336.0361329528"
            },
            "orbiting_body": "Earth"
        },
        {
            "close_approach_date": "1985-05-31",
            "close_approach_date_full": "1985-May-31 18:05",
            "epoch_date_close_approach": 486410700000,
            "relative_velocity": {
                "kilometers_per_second": "12.7469851981",
                "kilometers_per_hour": "45889.1467131942",
                "miles_per_hour": "28513.7311896511"
            },
            "miss_distance": {
                "astronomical": "0.3777792794",
                "lunar": "146.9561396866",
                "kilometers": "56514975.528374878",
                "miles": "35116777.4067261964"
            },
            "orbiting_body": "Earth"
        },
        {
            "close_approach_date": "1992-03-28",
            "close_approach_date_full": "1992-Mar-28 14:08",
            "epoch_date_close_approach": 701791680000,
            "relative_velocity": {
                "kilometers_per_second": "9.1228080233",
                "kilometers_per_hour": "32842.1088838453",
                "miles_per_hour": "20406.8092672982"
            },
            "miss_distance": {
                "astronomical": "0.2614440925",
                "lunar": "101.7017519825",
                "kilometers": "39111479.362082975",
                "miles": "24302746.342276055"
            },
            "orbiting_body": "Earth"
        },
        {
            "close_approach_date": "2014-04-24",
            "close_approach_date_full": "2014-Apr-24 23:59",
            "epoch_date_close_approach": 1398383940000,
            "relative_velocity": {
                "kilometers_per_second": "3.4644808083",
                "kilometers_per_hour": "12472.1309100249",
                "miles_per_hour": "7749.6971201763"
            },
            "miss_distance": {
                "astronomical": "0.0331481733",
                "lunar": "12.8946394137",
                "kilometers": "4958896.120070871",
                "miles": "3081315.1665291798"
            },
            "orbiting_body": "Earth"
        }
    ],
    "orbital_data": {
        "orbit_id": "3",
        "orbit_determination_date": "2017-04-06 08:40:52",
        "first_observation_date": "2014-04-24",
        "last_observation_date": "2014-04-29",
        "data_arc_in_days": 5,
        "observations_used": 27,
        "orbit_uncertainty": "8",
        "minimum_orbit_intersection": ".0329454",
        "jupiter_tisserand_invariant": "5.164",
        "epoch_osculation": "2456774.5",
        "eccentricity": ".1612083945798791",
        "semi_major_axis": "1.237187853382695",
        "inclination": "5.486218396691081",
        "ascending_node_longitude": "35.63944018356505",
        "orbital_period": "502.6340411748886",
        "perihelion_distance": "1.037742785745144",
        "perihelion_argument": "171.8896085862048",
        "aphelion_distance": "1.436632921020246",
        "perihelion_time": "2456765.369497918395",
        "mean_anomaly": "6.539510817243104",
        "mean_motion": ".7162268579312957",
        "equinox": "J2000",
        "orbit_class": {
            "orbit_class_type": "AMO",
            "orbit_class_description": "Near-Earth asteroid orbits similar to that of 1221 Amor",
            "orbit_class_range": "1.017 AU < q (perihelion) < 1.3 AU"
        }
    },
    "is_sentry_object": false
}